[{"OBJECT_NAME":"YAOGAN-43 01H","OBJECT_ID":"2024-148H","EPOCH":"2026-03-10T00:13:57.702432","MEAN_MOTION":15.25826805,"ECCENTRICITY":0.000635,"INCLINATION":34.994,"RA_OF_ASC_NODE":64.6147,"ARG_OF_PERICENTER":359.2394,"MEAN_ANOMALY":0.8311,"EPHEMERIS_TYPE":0,"CLASSIFICATION_TYPE":"U","NORAD_CAT_ID":60465,"ELEMENT_SET_NO":999,"REV_AT_EPOCH":8702,"BSTAR":0.00039232254,"MEAN_MOTION_DOT":0.00010268,"MEAN_MOTION_DDOT":0},{"OBJECT_NAME":"STARLINK-36042","OBJECT_ID":"2025-278Y","EPOCH":"2026-03-09T10:24:35.434944","MEAN_MOTION":15.27573102,"ECCENTRICITY":0.00022512,"INCLINATION":43.0002,"RA_OF_ASC_NODE":115.4822,"ARG_OF_PERICENTER":273.0427,"MEAN_ANOMALY":87.0167,"EPHEMERIS_TYPE":0,"CLASSIFICATION_TYPE":"U","NORAD_CAT_ID":66813,"ELEMENT_SET_NO":999,"REV_AT_EPOCH":1517,"BSTAR":0.0006700339,"MEAN_MOTION_DOT":0.00018218,"MEAN_MOTION_DDOT":0}]
